{
  "type": "FeatureCollection",
  "features": [
    {
      "type": "Feature",
      "properties": {
        "norad_id": 37284,
        "name": "COSMOS 2251 DEB",
        "group": "cosmos-2251-debris",
        "lat": 73.74513077662507,
        "lon": -108.32092871277177,
        "alt_km": 943.3230084344177,
        "timestamp": "2025-12-15T20:48:54.282017+00:00",
        "meta_object_name": "COSMOS 2251 DEB",
        "meta_object_id": "1993-036BHY",
        "meta_epoch": "2025-12-10T18:04:20.469216",
        "meta_mean_motion": 14.12686618,
        "meta_eccentricity": 0.01605026,
        "meta_inclination": 74.0123,
        "meta_ra_of_asc_node": 160.2425,
        "meta_arg_of_pericenter": 312.4867,
        "meta_mean_anomaly": 59.8736,
        "meta_ephemeris_type": 0,
        "meta_classification_type": "U",
        "meta_norad_cat_id": 37284,
        "meta_element_set_no": 999,
        "meta_rev_at_epoch": 59147,
        "meta_bstar": 0.001592138,
        "meta_mean_motion_dot": 3.31e-05,
        "meta_mean_motion_ddot": 0,
        "tle_line1": "1 37284U 93036BHY 25344.75301469  .00003310  00000+0  15921-2 0  9994",
        "tle_line2": "2 37284  74.0123 160.2425 0160502 312.4867  59.8736 14.12686618591475"
      },
      "geometry": {
        "type": "Point",
        "coordinates": [
          -108.32092871277177,
          73.74513077662507
        ]
      }
    },
    {
      "type": "Feature",
      "properties": {
        "norad_id": 37292,
        "name": "COSMOS 2251 DEB",
        "group": "cosmos-2251-debris",
        "lat": 64.21373286054853,
        "lon": -171.71530103628209,
        "alt_km": 805.7116478913194,
        "timestamp": "2025-12-15T20:48:54.282027+00:00",
        "meta_object_name": "COSMOS 2251 DEB",
        "meta_object_id": "1993-036BJG",
        "meta_epoch": "2025-12-02T14:04:30.366912",
        "meta_mean_motion": 14.03226454,
        "meta_eccentricity": 0.02102512,
        "meta_inclination": 74.129,
        "meta_ra_of_asc_node": 67.3453,
        "meta_arg_of_pericenter": 73.1105,
        "meta_mean_anomaly": 289.2966,
        "meta_ephemeris_type": 0,
        "meta_classification_type": "U",
        "meta_norad_cat_id": 37292,
        "meta_element_set_no": 999,
        "meta_rev_at_epoch": 59706,
        "meta_bstar": 0.0022453288,
        "meta_mean_motion_dot": 4.236e-05,
        "meta_mean_motion_ddot": 0,
        "tle_line1": "1 37292U 93036BJG 25336.58646258  .00004236  00000+0  22453-2 0  9999",
        "tle_line2": "2 37292  74.1290  67.3453 0210251  73.1105 289.2966 14.03226454597064"
      },
      "geometry": {
        "type": "Point",
        "coordinates": [
          -171.71530103628209,
          64.21373286054853
        ]
      }
    },
    {
      "type": "Feature",
      "properties": {
        "norad_id": 37295,
        "name": "COSMOS 2251 DEB",
        "group": "cosmos-2251-debris",
        "lat": -0.9068657142341972,
        "lon": -84.66395913417846,
        "alt_km": 681.4632179889204,
        "timestamp": "2025-12-15T20:48:54.282038+00:00",
        "meta_object_name": "COSMOS 2251 DEB",
        "meta_object_id": "1993-036BJK",
        "meta_epoch": "2025-12-13T13:06:23.160960",
        "meta_mean_motion": 14.65245888,
        "meta_eccentricity": 0.00438082,
        "meta_inclination": 74.0063,
        "meta_ra_of_asc_node": 280.069,
        "meta_arg_of_pericenter": 99.0616,
        "meta_mean_anomaly": 261.5513,
        "meta_ephemeris_type": 0,
        "meta_classification_type": "U",
        "meta_norad_cat_id": 37295,
        "meta_element_set_no": 999,
        "meta_rev_at_epoch": 82316,
        "meta_bstar": 0.00074329586,
        "meta_mean_motion_dot": 4.033e-05,
        "meta_mean_motion_ddot": 0,
        "tle_line1": "1 37295U 93036BJK 25347.54610140  .00004033  00000+0  74330-3 0  9998",
        "tle_line2": "2 37295  74.0063 280.0690 0043808  99.0616 261.5513 14.65245888823161"
      },
      "geometry": {
        "type": "Point",
        "coordinates": [
          -84.66395913417846,
          -0.9068657142341972
        ]
      }
    },
    {
      "type": "Feature",
      "properties": {
        "norad_id": 37305,
        "name": "COSMOS 2251 DEB",
        "group": "cosmos-2251-debris",
        "lat": 5.977530822904648,
        "lon": 102.97950720942202,
        "alt_km": 761.1474202371273,
        "timestamp": "2025-12-15T20:48:54.282048+00:00",
        "meta_object_name": "COSMOS 2251 DEB",
        "meta_object_id": "1993-036BJV",
        "meta_epoch": "2025-12-13T12:50:04.816608",
        "meta_mean_motion": 14.36140847,
        "meta_eccentricity": 0.00500253,
        "meta_inclination": 73.8697,
        "meta_ra_of_asc_node": 289.0409,
        "meta_arg_of_pericenter": 249.3262,
        "meta_mean_anomaly": 110.2523,
        "meta_ephemeris_type": 0,
        "meta_classification_type": "U",
        "meta_norad_cat_id": 37305,
        "meta_element_set_no": 999,
        "meta_rev_at_epoch": 66878,
        "meta_bstar": 0.00092453159,
        "meta_mean_motion_dot": 2.706e-05,
        "meta_mean_motion_ddot": 0,
        "tle_line1": "1 37305U 93036BJV 25347.53477797  .00002706  00000+0  92453-3 0  9999",
        "tle_line2": "2 37305  73.8697 289.0409 0050025 249.3262 110.2523 14.36140847668789"
      },
      "geometry": {
        "type": "Point",
        "coordinates": [
          102.97950720942202,
          5.977530822904648
        ]
      }
    },
    {
      "type": "Feature",
      "properties": {
        "norad_id": 37312,
        "name": "COSMOS 2251 DEB",
        "group": "cosmos-2251-debris",
        "lat": -29.687560128387073,
        "lon": -171.05202872594558,
        "alt_km": 732.3192778711755,
        "timestamp": "2025-12-15T20:48:54.282059+00:00",
        "meta_object_name": "COSMOS 2251 DEB",
        "meta_object_id": "1993-036BKC",
        "meta_epoch": "2025-12-14T06:46:17.768640",
        "meta_mean_motion": 14.46132509,
        "meta_eccentricity": 0.0018364,
        "meta_inclination": 74.031,
        "meta_ra_of_asc_node": 201.3012,
        "meta_arg_of_pericenter": 304.3949,
        "meta_mean_anomaly": 55.5472,
        "meta_ephemeris_type": 0,
        "meta_classification_type": "U",
        "meta_norad_cat_id": 37312,
        "meta_element_set_no": 999,
        "meta_rev_at_epoch": 86186,
        "meta_bstar": 0.000527759,
        "meta_mean_motion_dot": 1.862e-05,
        "meta_mean_motion_ddot": 0,
        "tle_line1": "1 37312U 93036BKC 25348.28215010  .00001862  00000+0  52776-3 0  9994",
        "tle_line2": "2 37312  74.0310 201.3012 0018364 304.3949  55.5472 14.46132509861868"
      },
      "geometry": {
        "type": "Point",
        "coordinates": [
          -171.05202872594558,
          -29.687560128387073
        ]
      }
    },
    {
      "type": "Feature",
      "properties": {
        "norad_id": 37316,
        "name": "COSMOS 2251 DEB",
        "group": "cosmos-2251-debris",
        "lat": -7.655915460002247,
        "lon": 12.555510686719662,
        "alt_km": 586.9421295601414,
        "timestamp": "2025-12-15T20:48:54.282069+00:00",
        "meta_object_name": "COSMOS 2251 DEB",
        "meta_object_id": "1993-036BKG",
        "meta_epoch": "2025-12-14T03:04:58.895616",
        "meta_mean_motion": 14.94578361,
        "meta_eccentricity": 0.00293501,
        "meta_inclination": 74.0208,
        "meta_ra_of_asc_node": 18.2691,
        "meta_arg_of_pericenter": 85.9005,
        "meta_mean_anomaly": 274.5532,
        "meta_ephemeris_type": 0,
        "meta_classification_type": "U",
        "meta_norad_cat_id": 37316,
        "meta_element_set_no": 999,
        "meta_rev_at_epoch": 86164,
        "meta_bstar": 0.0019027011,
        "meta_mean_motion_dot": 0.00020787,
        "meta_mean_motion_ddot": 0,
        "tle_line1": "1 37316U 93036BKG 25348.12845944  .00020787  00000+0  19027-2 0  9994",
        "tle_line2": "2 37316  74.0208  18.2691 0029350  85.9005 274.5532 14.94578361861647"
      },
      "geometry": {
        "type": "Point",
        "coordinates": [
          12.555510686719662,
          -7.655915460002247
        ]
      }
    },
    {
      "type": "Feature",
      "properties": {
        "norad_id": 37320,
        "name": "COSMOS 2251 DEB",
        "group": "cosmos-2251-debris",
        "lat": -47.68738185724775,
        "lon": -166.29728054847394,
        "alt_km": 607.2593381385232,
        "timestamp": "2025-12-15T20:48:54.282092+00:00",
        "meta_object_name": "COSMOS 2251 DEB",
        "meta_object_id": "1993-036BKL",
        "meta_epoch": "2025-12-14T07:41:51.703584",
        "meta_mean_motion": 14.78808328,
        "meta_eccentricity": 0.00469324,
        "meta_inclination": 74.0457,
        "meta_ra_of_asc_node": 215.056,
        "meta_arg_of_pericenter": 301.712,
        "meta_mean_anomaly": 57.9484,
        "meta_ephemeris_type": 0,
        "meta_classification_type": "U",
        "meta_norad_cat_id": 37320,
        "meta_element_set_no": 999,
        "meta_rev_at_epoch": 66170,
        "meta_bstar": 0.00089962437,
        "meta_mean_motion_dot": 6.711e-05,
        "meta_mean_motion_ddot": 0,
        "tle_line1": "1 37320U 93036BKL 25348.32073731  .00006711  00000+0  89962-3 0  9995",
        "tle_line2": "2 37320  74.0457 215.0560 0046932 301.7120  57.9484 14.78808328661707"
      },
      "geometry": {
        "type": "Point",
        "coordinates": [
          -166.29728054847394,
          -47.68738185724775
        ]
      }
    }
  ]
}